IRIDIUM 33              
1 24946U 97051C   26195.90254591  .00000118  00000+0  34292-4 0  9998
2 24946  86.3894 338.3219 0006228 223.8888 136.1814 14.35159088509069
IRIDIUM 33 DEB          
1 33773U 97051L   26195.91429388  .00000474  00000+0  13367-3 0  9999
2 33773  86.4032 329.8134 0012096 155.0948 205.0839 14.43691844914373
IRIDIUM 33 DEB          
1 33775U 97051N   26195.82932373  .00000706  00000+0  20861-3 0  9999
2 33775  86.3648 318.1210 0013784 166.1780 325.7806 14.42091317912252
IRIDIUM 33 DEB          
1 33776U 97051P   26195.93573527  .00000336  00000+0  10322-3 0  9994
2 33776  86.4057 350.7884 0013456 206.6079 269.3177 14.38570950911617
IRIDIUM 33 DEB          
1 33777U 97051Q   26195.85724714  .00001877  00000+0  41272-3 0  9991
2 33777  86.3795 301.9643 0004879 244.2467 115.8238 14.57039710916506
IRIDIUM 33 DEB          
1 33850U 97051T   26195.79720642  .00000606  00000+0  17588-3 0  9994
2 33850  86.3416 298.1055 0012200 172.3430 307.1119 14.42741211912386
IRIDIUM 33 DEB          
1 33853U 97051W   26195.98525743  .00000499  00000+0  27449-3 0  9990
2 33853  85.9971 255.7845 0205755 299.2900 177.4591 13.99887539883425
IRIDIUM 33 DEB          
1 33860U 97051AD  26195.51802559  .00002940  00000+0  48075-3 0  9991
2 33860  86.3822 292.3442 0006109 334.7151  35.6681 14.70524289918613
IRIDIUM 33 DEB          
1 33862U 97051AF  26195.79731231  .00002416  00000+0  35858-3 0  9994
2 33862  86.4095 302.7705 0049032  48.2295  76.5171 14.73791197919722
IRIDIUM 33 DEB          
1 33866U 97051AK  26195.97079255  .00002041  00000+0  78541-3 0  9999
2 33866  86.3017   2.3012 0112810 192.0646 293.1962 14.26475699898631
IRIDIUM 33 DEB          
1 33870U 97051AP  26195.88079021  .00001119  00000+0  30213-3 0  9994
2 33870  86.3764 326.4010 0020652 184.9687 305.3472 14.46900349912322
IRIDIUM 33 DEB          
1 33881U 97051BA  26195.54486773  .00007018  00000+0  13549-2 0  9991
2 33881  86.3835  13.3101 0054699 169.0385 259.3398 14.62364974906192
IRIDIUM 33 DEB          
1 33884U 97051BD  26195.47434093  .00005396  00000+0  65290-3 0  9992
2 33884  86.3660 272.8134 0007895 272.1836 102.8475 14.83500458920109
IRIDIUM 33 DEB          
1 33886U 97051BF  26195.92505244  .00000230  00000+0  71874-4 0  9999
2 33886  86.3854 337.0666 0011831 264.6067 213.5470 14.36280547911261
IRIDIUM 33 DEB          
1 33887U 97051BG  26195.69671902  .00000196  00000+0  59111-4 0  9990
2 33887  86.3031 271.1864 0004058 253.6720 225.9509 14.37413662912385
IRIDIUM 33 DEB          
1 33953U 97051BN  26195.80225510  .00001590  00000+0  34605-3 0  9996
2 33953  86.3870 320.7321 0018545  99.3878  27.3170 14.57294333914197
IRIDIUM 33 DEB          
1 33960U 97051BV  26194.98380808  .00006899  00000+0  63227-3 0  9993
2 33960  86.2556 188.1036 0004717  81.3410 331.5471 14.94762273920446
IRIDIUM 33 DEB          
1 33966U 97051CB  26195.82198759  .00000834  00000+0  20810-3 0  9999
2 33966  86.3937 314.1045 0007112 190.2604 289.7796 14.50453344915440
IRIDIUM 33 DEB          
1 34071U 97051CE  26195.72407476  .00000916  00000+0  22905-3 0  9993
2 34071  86.3441 284.7424 0009871 111.7007 248.5249 14.50456578914357
IRIDIUM 33 DEB          
1 34077U 97051CL  26195.85854896  .00003638  00000+0  62577-3 0  9998
2 34077  86.3864 316.8984 0008807  25.8203  96.8060 14.68356487914713
IRIDIUM 33 DEB          
1 34079U 97051CN  26195.66896972  .00006524  00000+0  66909-3 0  9990
2 34079  86.3728 270.7474 0003373 304.0144 181.9204 14.90291236921578
IRIDIUM 33 DEB          
1 34088U 97051CX  26195.80058200  .00018045  00000+0  12364-2 0  9996
2 34088  86.3777 291.1391 0005752 155.5278 330.2949 15.05943509919483
IRIDIUM 33 DEB          
1 34091U 97051DA  26195.35989341  .00015006  00000+0  13150-2 0  9997
2 34091  86.3472 327.7780 0026105 247.7640 112.0821 14.96310461910489
IRIDIUM 33 DEB          
1 34097U 97051DG  26195.63860839  .00000518  00000+0  16430-3 0  9991
2 34097  86.1973 266.8434 0080841  24.5256 335.9751 14.36248240901880
IRIDIUM 33 DEB          
1 34145U 97051DY  26195.85921821  .00001269  00000+0  36050-3 0  9992
2 34145  86.2090 237.0096 0054275 106.8961 253.8200 14.43761150907261
IRIDIUM 33 DEB          
1 34146U 97051DZ  26195.94132337  .00001139  00000+0  28608-3 0  9995
2 34146  86.2804 255.0549 0024628 227.0623 254.1258 14.50301283912109
IRIDIUM 33 DEB          
1 34159U 97051EN  26195.80077188  .00000479  00000+0  14841-3 0  9996
2 34159  86.3527 316.9545 0025711 306.6775  53.2061 14.38998420910373
IRIDIUM 33 DEB          
1 34350U 97051ES  26195.69374001  .00000444  00000+0  11881-3 0  9993
2 34350  86.3258 269.9242 0022531 144.4829 338.3619 14.45930372913844
IRIDIUM 33 DEB          
1 34366U 97051FJ  26195.33776933  .00002473  00000+0  55569-3 0  9996
2 34366  86.3701 316.2548 0021789 138.4529 274.9861 14.55997069912887
IRIDIUM 33 DEB          
1 34375U 97051FT  26195.75774201  .00000403  00000+0  17663-3 0  9992
2 34375  86.4286  96.4037 0101462 165.6070 253.7744 14.18374052897456
IRIDIUM 33 DEB          
1 34376U 97051FU  26195.37914002  .00004218  00000+0  75461-3 0  9994
2 34376  86.2937 270.1214 0026053 158.2808 201.9517 14.66437267911344
IRIDIUM 33 DEB          
1 34486U 97051GB  26195.50703970  .00016831  00000+0  10452-2 0  9993
2 34486  86.3776 272.1243 0006576  87.1430 335.5948 15.09565894921979
IRIDIUM 33 DEB          
1 34487U 97051GC  26195.73599976  .00000305  00000+0  83658-4 0  9997
2 34487  86.3424 280.2317 0032437 139.8336 347.7370 14.43516754913352
IRIDIUM 33 DEB          
1 34492U 97051GH  26195.14303559  .00003526  00000+0  11641-2 0  9997
2 34492  86.4683 248.0551 0175147 269.7155 117.2646 14.29487559881046
IRIDIUM 33 DEB          
1 34497U 97051GN  26195.31834553  .00000550  00000+0  20632-3 0  9999
2 34497  86.2800 321.1271 0079136  11.4525  17.6368 14.28154573899315
IRIDIUM 33 DEB          
1 34508U 97051GZ  26195.95963294  .00001485  00000+0  45613-3 0  9991
2 34508  86.3710  11.6739 0063611 187.4293 172.5970 14.39814876903908
IRIDIUM 33 DEB          
1 34521U 97051HN  26195.73800508  .00002580  00000+0  46661-3 0  9991
2 34521  86.3791 296.1122 0001830 214.9879 145.1214 14.66042853916054
IRIDIUM 33 DEB          
1 34525U 97051HS  26195.38217794  .00000553  00000+0  15796-3 0  9998
2 34525  86.3745 315.6348 0006717 103.6223 321.8088 14.43423949911691
IRIDIUM 33 DEB          
1 34529U 97051HW  26195.75147903  .00000350  00000+0  10294-3 0  9990
2 34529  86.3649 304.1789 0004284 190.8092 169.3016 14.40886085912237
IRIDIUM 33 DEB          
1 34538U 97051JF  26195.20169573  .00000768  00000+0  21871-3 0  9993
2 34538  86.2744 271.9563 0032644 342.1332  46.8694 14.43766471908351
IRIDIUM 33 DEB          
1 34540U 97051JH  26195.52959943  .00004129  00000+0  54627-3 0  9999
2 34540  86.3082 209.4810 0016993 136.4122  24.3612 14.79622950921786
IRIDIUM 33 DEB          
1 34648U 97051JZ  26194.97214050  .00002369  00000+0  10604-2 0  9999
2 34648  86.3972 195.6414 0169079 347.1325  12.5569 14.14938982879730
IRIDIUM 33 DEB          
1 34651U 97051KC  26194.36037799  .00002814  00000+0  10167-2 0  9998
2 34651  86.2785  49.7822 0129139 239.0259 119.8195 14.28718299889295
IRIDIUM 33 DEB          
1 34652U 97051KD  26194.11052238  .00001719  00000+0  32370-3 0  9991
2 34652  86.3285 245.2781 0024679 291.8910  97.4095 14.63823142915891
IRIDIUM 33 DEB          
1 34690U 97051KM  26195.79931008  .00002137  00000+0  47982-3 0  9999
2 34690  86.3789 303.8996 0009660  27.4704  99.6463 14.56111336912086
IRIDIUM 33 DEB          
1 34696U 97051KT  26195.22523500  .00019859  00000+0  25875-2 0  9992
2 34696  86.1782 286.9268 0059701 150.6152 239.3922 14.79223584898151
IRIDIUM 33 DEB          
1 34765U 97051LJ  26195.25985308  .00000584  00000+0  17528-3 0  9992
2 34765  86.3397 301.1124 0014762 228.7172 160.2826 14.41012132906889
IRIDIUM 33 DEB          
1 34833U 97051MH  26195.58304316  .00001343  00000+0  31479-3 0  9993
2 34833  86.3949 318.7468 0021561  99.0949  29.7499 14.53683479908203
IRIDIUM 33 DEB          
1 34870U 97051MQ  26194.53242177  .00003805  00000+0  49307-3 0  9998
2 34870  86.3092 216.2621 0016880 160.5137 350.7858 14.80475141920550
IRIDIUM 33 DEB          
1 34896U 97051MY  26195.35668132  .00001742  00000+0  29686-3 0  9996
2 34896  86.3268 230.6969 0024586 199.0309 176.5112 14.68252024907526
IRIDIUM 33 DEB          
1 34926U 97051NF  26194.18268419  .00004894  00000+0  92508-3 0  9998
2 34926  86.1303 268.9810 0066582 294.6593  94.1951 14.62792406895558
IRIDIUM 33 DEB          
1 34985U 97051NR  26195.83044470  .00000877  00000+0  25643-3 0  9998
2 34985  86.3716 325.4978 0019549 233.4311 255.0302 14.42878451902614
IRIDIUM 33 DEB          
1 35051U 97051NX  26193.53521377  .00000969  00000+0  25261-3 0  9992
2 35051  86.3225 276.4686 0010735 103.7119 256.5281 14.48554640900615
IRIDIUM 33 DEB          
1 35052U 97051NY  26195.53023546  .00000271  00000+0  81680-4 0  9994
2 35052  86.3308 288.8170 0013698 100.7763 259.4978 14.38749712903495
IRIDIUM 33 DEB          
1 35297U 97051PM  26195.13376357  .00000987  00000+0  27088-3 0  9997
2 35297  86.3882 331.6306 0017087 149.7861 210.4331 14.46049513735099
IRIDIUM 33 DEB          
1 35299U 97051PP  26194.26954458  .00002236  00000+0  65439-3 0  9997
2 35299  86.2884 300.5311 0057316 120.8289 269.3038 14.42587059893939
IRIDIUM 33 DEB          
1 35480U 97051QA  26195.54521996  .00000966  00000+0  23990-3 0  9992
2 35480  86.3556 292.1453 0016066 109.6476 250.6465 14.50760323901305
IRIDIUM 33 DEB          
1 35484U 97051QE  26187.93814412  .00035409  00000+0  17316-2 0  9992
2 35484  86.3413 254.5480 0014890 101.7984 258.4929 15.17967349651240
IRIDIUM 33 DEB          
1 35488U 97051QJ  26195.47221152  .00004052  00000+0  44099-3 0  9996
2 35488  86.3238 201.9519 0024418   9.5471 350.6213 14.87574264914396
IRIDIUM 33 DEB          
1 35616U 97051QN  26191.14895867  .00007078  00000+0  77544-3 0  9991
2 35616  86.3498 249.6601 0010680 150.3518 209.8315 14.87591738906823
